GLOBALSTAR M084 [+]     
1 38040U 11080A   23284.59882536 -.00000074  00000+0  16684-3 0  9999
2 38040  51.9987 119.5060 0001059  97.3145 301.9853 12.62266776545055
GLOBALSTAR M080 [+]     
1 38041U 11080B   23284.57096405 -.00000064  00000+0  22142-3 0  9995
2 38041  52.0038 120.9812 0001270  93.0321 299.8899 12.62265458545174
GLOBALSTAR M082 [+]     
1 38042U 11080C   23284.59377354 -.00000098  00000+0  30995-4 0  9996
2 38042  52.0073  76.2896 0000211  76.3201   1.1124 12.62271578545887
GLOBALSTAR M092 [+]     
1 38043U 11080D   23284.63298844 -.00000079  00000+0  13922-3 0  9997
2 38043  52.0071 166.5166 0000902  99.3250 276.7603 12.62272803544349
GLOBALSTAR M090 [+]     
1 38044U 11080E   23284.62079207 -.00000105  00000+0 -95182-5 0  9998
2 38044  51.9885  70.8070 0000583  81.2619 359.6231 12.62278131546009
GLOBALSTAR M086 [+]     
1 38045U 11080F   23284.56711965 -.00000099  00000+0  27997-4 0  9995
2 38045  51.9897  71.4741 0001532  63.0521  13.5519 12.62263245545947
GLOBALSTAR M097 [+]     
1 39072U 13005A   23284.41857798 -.00000074  00000+0  16358-3 0  9995
2 39072  52.0069 345.8542 0000422  55.6577 304.4330 12.62271017493179
GLOBALSTAR M093 [+]     
1 39073U 13005B   23284.55039830 -.00000073  00000+0  16958-3 0  9995
2 39073  51.9831 339.7396 0000562  36.5994 323.4910 12.62267392493143
